CCSDS_OMM_VERS = 2.0
CREATION_DATE  = 
ORIGINATOR     = 

OBJECT_NAME    = STARLINK-36766
OBJECT_ID      = 2026-042A
CENTER_NAME    = EARTH
REF_FRAME      = TEME
TIME_SYSTEM    = UTC
MEAN_ELEMENT_THEORY = SGP/SGP4

EPOCH          = 2026-04-03T05:47:59.918208
MEAN_MOTION    = 15.75244368
ECCENTRICITY   = .00035649
INCLINATION    = 53.1595
RA_OF_ASC_NODE = 71.9192
ARG_OF_PERICENTER = 30.7603
MEAN_ANOMALY   = 329.3625

EPHEMERIS_TYPE = 0
CLASSIFICATION_TYPE = U
NORAD_CAT_ID   = 68069
ELEMENT_SET_NO = 999
REV_AT_EPOCH   = 596
BSTAR          = .18796168E-2
MEAN_MOTION_DOT = .297968E-2
MEAN_MOTION_DDOT = 0

CCSDS_OMM_VERS = 2.0
CREATION_DATE  = 
ORIGINATOR     = 

OBJECT_NAME    = STARLINK-36823
OBJECT_ID      = 2026-042B
CENTER_NAME    = EARTH
REF_FRAME      = TEME
TIME_SYSTEM    = UTC
MEAN_ELEMENT_THEORY = SGP/SGP4

EPOCH          = 2026-04-03T07:00:08.435520
MEAN_MOTION    = 15.73367813
ECCENTRICITY   = .00051932
INCLINATION    = 53.1595
RA_OF_ASC_NODE = 71.5151
ARG_OF_PERICENTER = 73.9429
MEAN_ANOMALY   = 286.2162

EPHEMERIS_TYPE = 0
CLASSIFICATION_TYPE = U
NORAD_CAT_ID   = 68070
ELEMENT_SET_NO = 999
REV_AT_EPOCH   = 597
BSTAR          = -.12273397E-1
MEAN_MOTION_DOT = -.1525117E-1
MEAN_MOTION_DDOT = 0

CCSDS_OMM_VERS = 2.0
CREATION_DATE  = 
ORIGINATOR     = 

OBJECT_NAME    = STARLINK-36970
OBJECT_ID      = 2026-042C
CENTER_NAME    = EARTH
REF_FRAME      = TEME
TIME_SYSTEM    = UTC
MEAN_ELEMENT_THEORY = SGP/SGP4

EPOCH          = 2026-04-03T04:36:41.949216
MEAN_MOTION    = 15.75251329
ECCENTRICITY   = .00012053
INCLINATION    = 53.1592
RA_OF_ASC_NODE = 72.3274
ARG_OF_PERICENTER = 110.2076
MEAN_ANOMALY   = 249.9074

EPHEMERIS_TYPE = 0
CLASSIFICATION_TYPE = U
NORAD_CAT_ID   = 68071
ELEMENT_SET_NO = 999
REV_AT_EPOCH   = 595
BSTAR          = .26017811E-2
MEAN_MOTION_DOT = .41881E-2
MEAN_MOTION_DDOT = 0

CCSDS_OMM_VERS = 2.0
CREATION_DATE  = 
ORIGINATOR     = 

OBJECT_NAME    = STARLINK-36972
OBJECT_ID      = 2026-042D
CENTER_NAME    = EARTH
REF_FRAME      = TEME
TIME_SYSTEM    = UTC
MEAN_ELEMENT_THEORY = SGP/SGP4

EPOCH          = 2026-04-03T06:00:00.999648
MEAN_MOTION    = 15.75172117
ECCENTRICITY   = .00010462
INCLINATION    = 53.1599
RA_OF_ASC_NODE = 71.7771
ARG_OF_PERICENTER = 100.3827
MEAN_ANOMALY   = 356.8037

EPHEMERIS_TYPE = 0
CLASSIFICATION_TYPE = U
NORAD_CAT_ID   = 68072
ELEMENT_SET_NO = 999
REV_AT_EPOCH   = 600
BSTAR          = .17241211E-3
MEAN_MOTION_DOT = .25793E-3
MEAN_MOTION_DDOT = 0

CCSDS_OMM_VERS = 2.0
CREATION_DATE  = 
ORIGINATOR     = 

OBJECT_NAME    = STARLINK-37074
OBJECT_ID      = 2026-042E
CENTER_NAME    = EARTH
REF_FRAME      = TEME
TIME_SYSTEM    = UTC
MEAN_ELEMENT_THEORY = SGP/SGP4

EPOCH          = 2026-04-03T02:51:46.907424
MEAN_MOTION    = 15.75297711
ECCENTRICITY   = .00016819
INCLINATION    = 53.1575
RA_OF_ASC_NODE = 72.5791
ARG_OF_PERICENTER = 112.5291
MEAN_ANOMALY   = 247.5908

EPHEMERIS_TYPE = 0
CLASSIFICATION_TYPE = U
NORAD_CAT_ID   = 68073
ELEMENT_SET_NO = 999
REV_AT_EPOCH   = 594
BSTAR          = .11342504E-2
MEAN_MOTION_DOT = .177376E-2
MEAN_MOTION_DDOT = 0

CCSDS_OMM_VERS = 2.0
CREATION_DATE  = 
ORIGINATOR     = 

OBJECT_NAME    = STARLINK-37045
OBJECT_ID      = 2026-042F
CENTER_NAME    = EARTH
REF_FRAME      = TEME
TIME_SYSTEM    = UTC
MEAN_ELEMENT_THEORY = SGP/SGP4

EPOCH          = 2026-04-03T04:56:18.284352
MEAN_MOTION    = 15.75204514
ECCENTRICITY   = .00017532
INCLINATION    = 53.1592
RA_OF_ASC_NODE = 72.4195
ARG_OF_PERICENTER = 48.0719
MEAN_ANOMALY   = 312.0451

EPHEMERIS_TYPE = 0
CLASSIFICATION_TYPE = U
NORAD_CAT_ID   = 68074
ELEMENT_SET_NO = 999
REV_AT_EPOCH   = 595
BSTAR          = .21910103E-2
MEAN_MOTION_DOT = .348918E-2
MEAN_MOTION_DDOT = 0

CCSDS_OMM_VERS = 2.0
CREATION_DATE  = 
ORIGINATOR     = 

OBJECT_NAME    = STARLINK-37026
OBJECT_ID      = 2026-042G
CENTER_NAME    = EARTH
REF_FRAME      = TEME
TIME_SYSTEM    = UTC
MEAN_ELEMENT_THEORY = SGP/SGP4

EPOCH          = 2026-04-03T05:09:50.227488
MEAN_MOTION    = 15.75304044
ECCENTRICITY   = .00011498
INCLINATION    = 53.1559
RA_OF_ASC_NODE = 72.4788
ARG_OF_PERICENTER = 50.5680
MEAN_ANOMALY   = 309.5441

EPHEMERIS_TYPE = 0
CLASSIFICATION_TYPE = U
NORAD_CAT_ID   = 68075
ELEMENT_SET_NO = 999
REV_AT_EPOCH   = 595
BSTAR          = .13525009E-2
MEAN_MOTION_DOT = .212578E-2
MEAN_MOTION_DDOT = 0

CCSDS_OMM_VERS = 2.0
CREATION_DATE  = 
ORIGINATOR     = 

OBJECT_NAME    = STARLINK-37023
OBJECT_ID      = 2026-042H
CENTER_NAME    = EARTH
REF_FRAME      = TEME
TIME_SYSTEM    = UTC
MEAN_ELEMENT_THEORY = SGP/SGP4

EPOCH          = 2026-04-03T05:02:21.631776
MEAN_MOTION    = 15.75317489
ECCENTRICITY   = .00011739
INCLINATION    = 53.1564
RA_OF_ASC_NODE = 72.4446
ARG_OF_PERICENTER = 123.8809
MEAN_ANOMALY   = 236.2324

EPHEMERIS_TYPE = 0
CLASSIFICATION_TYPE = U
NORAD_CAT_ID   = 68076
ELEMENT_SET_NO = 999
REV_AT_EPOCH   = 595
BSTAR          = .8996545E-3
MEAN_MOTION_DOT = .140052E-2
MEAN_MOTION_DDOT = 0

CCSDS_OMM_VERS = 2.0
CREATION_DATE  = 
ORIGINATOR     = 

OBJECT_NAME    = STARLINK-37036
OBJECT_ID      = 2026-042J
CENTER_NAME    = EARTH
REF_FRAME      = TEME
TIME_SYSTEM    = UTC
MEAN_ELEMENT_THEORY = SGP/SGP4

EPOCH          = 2026-04-03T06:00:00.999648
MEAN_MOTION    = 15.75190129
ECCENTRICITY   = .00012438
INCLINATION    = 53.1564
RA_OF_ASC_NODE = 72.2505
ARG_OF_PERICENTER = 60.3355
MEAN_ANOMALY   = 165.0728

EPHEMERIS_TYPE = 0
CLASSIFICATION_TYPE = U
NORAD_CAT_ID   = 68077
ELEMENT_SET_NO = 999
REV_AT_EPOCH   = 600
BSTAR          = -.68091867E-3
MEAN_MOTION_DOT = -.10353E-2
MEAN_MOTION_DDOT = 0

CCSDS_OMM_VERS = 2.0
CREATION_DATE  = 
ORIGINATOR     = 

OBJECT_NAME    = STARLINK-36973
OBJECT_ID      = 2026-042K
CENTER_NAME    = EARTH
REF_FRAME      = TEME
TIME_SYSTEM    = UTC
MEAN_ELEMENT_THEORY = SGP/SGP4

EPOCH          = 2026-04-03T04:23:37.176288
MEAN_MOTION    = 15.75265549
ECCENTRICITY   = .0001552
INCLINATION    = 53.1582
RA_OF_ASC_NODE = 72.2652
ARG_OF_PERICENTER = 38.1980
MEAN_ANOMALY   = 321.9151

EPHEMERIS_TYPE = 0
CLASSIFICATION_TYPE = U
NORAD_CAT_ID   = 68078
ELEMENT_SET_NO = 999
REV_AT_EPOCH   = 595
BSTAR          = .13576887E-2
MEAN_MOTION_DOT = .21305E-2
MEAN_MOTION_DDOT = 0

CCSDS_OMM_VERS = 2.0
CREATION_DATE  = 
ORIGINATOR     = 

OBJECT_NAME    = STARLINK-37063
OBJECT_ID      = 2026-042L
CENTER_NAME    = EARTH
REF_FRAME      = TEME
TIME_SYSTEM    = UTC
MEAN_ELEMENT_THEORY = SGP/SGP4

EPOCH          = 2026-04-03T05:14:48.438816
MEAN_MOTION    = 15.81000812
ECCENTRICITY   = .0000924
INCLINATION    = 53.1562
RA_OF_ASC_NODE = 71.7664
ARG_OF_PERICENTER = 32.7757
MEAN_ANOMALY   = 327.3323

EPHEMERIS_TYPE = 0
CLASSIFICATION_TYPE = U
NORAD_CAT_ID   = 68079
ELEMENT_SET_NO = 999
REV_AT_EPOCH   = 596
BSTAR          = .17593067E-2
MEAN_MOTION_DOT = .363705E-2
MEAN_MOTION_DDOT = 0

CCSDS_OMM_VERS = 2.0
CREATION_DATE  = 
ORIGINATOR     = 

OBJECT_NAME    = STARLINK-37051
OBJECT_ID      = 2026-042M
CENTER_NAME    = EARTH
REF_FRAME      = TEME
TIME_SYSTEM    = UTC
MEAN_ELEMENT_THEORY = SGP/SGP4

EPOCH          = 2026-04-03T06:01:31.349856
MEAN_MOTION    = 15.75320146
ECCENTRICITY   = .00013173
INCLINATION    = 53.1582
RA_OF_ASC_NODE = 71.9810
ARG_OF_PERICENTER = 80.7971
MEAN_ANOMALY   = 279.3198

EPHEMERIS_TYPE = 0
CLASSIFICATION_TYPE = U
NORAD_CAT_ID   = 68080
ELEMENT_SET_NO = 999
REV_AT_EPOCH   = 596
BSTAR          = .15797894E-2
MEAN_MOTION_DOT = .249689E-2
MEAN_MOTION_DDOT = 0

