STARLINK-36766          
1 68069U 26042A   26093.24166572  .00297968  00000+0  18796-2 0  9999
2 68069  53.1595  71.9192 0003564  30.7603 329.3625 15.75244368  5960
STARLINK-36823          
1 68070U 26042B   26093.29176430 -.01525117  00000+0 -12273-1 0  9996
2 68070  53.1595  71.5151 0005193  73.9429 286.2162 15.73367813  5975
STARLINK-36970          
1 68071U 26042C   26093.19215219  .00418810  00000+0  26018-2 0  9996
2 68071  53.1592  72.3274 0001205 110.2076 249.9074 15.75251329  5953
STARLINK-36972          
1 68072U 26042D   26093.25001157  .00025793  00000+0  17241-3 0  9991
2 68072  53.1599  71.7771 0001046 100.3827 356.8037 15.75172117  6004
STARLINK-37074          
1 68073U 26042E   26093.11929291  .00177376  00000+0  11343-2 0  9996
2 68073  53.1575  72.5791 0001681 112.5291 247.5908 15.75297711  5948
STARLINK-37045          
1 68074U 26042F   26093.20576718  .00348918  00000+0  21910-2 0  9992
2 68074  53.1592  72.4195 0001753  48.0719 312.0451 15.75204514  5954
STARLINK-37026          
1 68075U 26042G   26093.21516467  .00212578  00000+0  13525-2 0  9994
2 68075  53.1559  72.4788 0001149  50.5680 309.5441 15.75304044  5959
STARLINK-37023          
1 68076U 26042H   26093.20997259  .00140052  00000+0  89965-3 0  9995
2 68076  53.1564  72.4446 0001173 123.8809 236.2324 15.75317489  5954
STARLINK-37036          
1 68077U 26042J   26093.25001157 -.00103530  00000+0 -68092-3 0  9994
2 68077  53.1564  72.2505 0001243  60.3355 165.0728 15.75190129  6002
STARLINK-36973          
1 68078U 26042K   26093.18306917  .00213050  00000+0  13577-2 0  9993
2 68078  53.1582  72.2652 0001552  38.1980 321.9151 15.75265549  5951
STARLINK-37063          
1 68079U 26042L   26093.21861619  .00363705  00000+0  17593-2 0  9998
2 68079  53.1562  71.7664 0000924  32.7757 327.3323 15.81000812  5960
STARLINK-37051          
1 68080U 26042M   26093.25105729  .00249689  00000+0  15798-2 0  9996
2 68080  53.1582  71.9810 0001317  80.7971 279.3198 15.75320146  5961
